GSAT0215 (GALILEO 19)   
1 43055U 17079A   26158.63028270  .00000042  00000+0  00000+0 0  9995
2 43055  55.0756 221.7698 0003271 266.5445  93.5000  1.70474655 52820
GSAT0216 (GALILEO 20)   
1 43056U 17079B   26158.33485928  .00000042  00000+0  00000+0 0  9990
2 43056  55.0761 221.7781 0004156 276.5849  83.4502  1.70474847 52831
GSAT0217 (GALILEO 21)   
1 43057U 17079C   26157.38249426  .00000041  00000+0  00000+0 0  9995
2 43057  55.0744 221.8020 0003476 288.9809  71.0662  1.70474392 52809
GSAT0218 (GALILEO 22)   
1 43058U 17079D   26157.60256346  .00000042  00000+0  00000+0 0  9991
2 43058  55.0744 221.7937 0005473 271.7341  88.2873  1.70474520 52836
BEIDOU-3 M7             
1 43107U 18003A   26157.07435627 -.00000056  00000+0  00000+0 0  9992
2 43107  54.3387 302.7026 0005003  91.1037 268.9441  1.86228500 57149
BEIDOU-3 M8             
1 43108U 18003B   26158.63015616 -.00000056  00000+0  00000+0 0  9998
2 43108  54.3300 302.6304 0002450 266.3856  93.5786  1.86231337 57181
BEIDOU-3 M4             
1 43207U 18018A   26157.99915948 -.00000039  00000+0  00000+0 0  9990
2 43207  56.6416  63.4852 0007715  16.7509 343.3023  1.86231216 56551
BEIDOU-3 M3             
1 43208U 18018B   26158.06562959 -.00000039  00000+0  00000+0 0  9990
2 43208  56.6414  63.4872 0008816 338.9295  21.0619  1.86231221 56553
BEIDOU-3 M9             
1 43245U 18029A   26156.13555275 -.00000056  00000+0  00000+0 0  9991
2 43245  54.2057 300.3710 0000840 140.8471 219.1477  1.86228436 55678
BEIDOU-3 M10            
1 43246U 18029B   26158.21780117 -.00000055  00000+0  00000+0 0  9997
2 43246  54.2009 300.3239 0004088  38.8353 321.1867  1.86229596 55692
IRNSS-1I                
1 43286U 18035A   26158.85542067  .00000093  00000+0  00000+0 0  9999
2 43286  28.7324  74.3437 0016794 191.1126 353.6742  1.00270205 29982
COSMOS 2527 [GLONASS-M] 
1 43508U 18053A   26158.23016692 -.00000008  00000+0  00000+0 0  9995
2 43508  65.5725  74.2393 0007424 241.6031 118.3443  2.13102372 62063
BEIDOU-2 IGSO-7         
1 43539U 18057A   26158.95590420  .00000024  00000+0  00000+0 0  9995
2 43539  55.1932 163.1382 0104854 237.9598 310.0357  1.00254381 29037
GSAT0221 (GALILEO 25)   
1 43564U 18060A   26158.67965850 -.00000063  00000+0  00000+0 0  9993
2 43564  57.1742 342.0370 0002698 308.1771  51.8137  1.70476000 49004
GSAT0222 (GALILEO 26)   
1 43565U 18060B   26157.13954150 -.00000066  00000+0  00000+0 0  9998
2 43565  57.1798 342.0825 0001851 255.3617 104.6309  1.70475822 49024
GSAT0219 (GALILEO 23)   
1 43566U 18060C   26158.53362059 -.00000063  00000+0  00000+0 0  9992
2 43566  57.1754 342.0461 0002283 330.3501  29.6519  1.70475974 49026
GSAT0220 (GALILEO 24)   
1 43567U 18060D   26156.99484105 -.00000066  00000+0  00000+0 0  9991
2 43567  57.1767 342.0886 0002290 320.0107  39.9854  1.70475975 48989
BEIDOU-3 M5             
1 43581U 18062A   26158.44191418  .00000098  00000+0  00000+0 0  9997
2 43581  54.0850 182.6354 0005606 288.5273  71.4667  1.86228982 53450
BEIDOU-3 M6             
1 43582U 18062B   26158.30534104  .00000097  00000+0  00000+0 0  9995
2 43582  54.0845 182.6295 0004790   9.6686 350.3955  1.86227922 53465
BEIDOU-3 M12            
1 43602U 18067A   26158.78070137  .00000104  00000+0  00000+0 0  9995
2 43602  54.1797 181.3593 0007745  30.2056 329.8928  1.86227933 52941
BEIDOU-3 M11            
1 43603U 18067B   26157.84181631  .00000093  00000+0  00000+0 0  9991
2 43603  54.1771 181.3547 0004475  14.0592 346.0057  1.86227396 52953
BEIDOU-3 M13            
1 43622U 18072A   26157.25976809 -.00000038  00000+0  00000+0 0  9992
2 43622  56.6156  63.0201 0007663 326.1226  33.8571  1.86231624 52450
BEIDOU-3 M14            
1 43623U 18072B   26157.12520362 -.00000038  00000+0  00000+0 0  9998
2 43623  56.6173  63.0188 0006272 355.0918   4.9306  1.86231671 52444
BEIDOU-3 M16            
1 43647U 18078A   26158.89154286 -.00000056  00000+0  00000+0 0  9993
2 43647  54.0990 300.3120 0007346  40.7643 319.2834  1.86232308 51982
BEIDOU-3 M15            
1 43648U 18078B   26152.57744501 -.00000074  00000+0  00000+0 0  9998
2 43648  54.1007 300.5335 0004536  56.3394 303.6792  1.86232507 51887
BEIDOU-3 G1             
1 43683U 18085A   26159.23279683 -.00000092  00000+0  00000+0 0  9999
2 43683   2.8447  97.6285 0008511 346.9193  55.8676  1.00271674 27978
COSMOS 2529 [GLONASS-M] 
1 43687U 18086A   26158.32674069  .00000085  00000+0  00000+0 0  9991
2 43687  64.2943 192.9273 0011726 256.2462 103.6914  2.13102175 59072
BEIDOU-3 M17            
1 43706U 18093A   26158.64243694  .00000101  00000+0  00000+0 0  9991
2 43706  54.1686 182.6203 0010022 291.3761  66.7230  1.86228480 51355
BEIDOU-3 M18            
1 43707U 18093B   26158.50852212  .00000099  00000+0  00000+0 0  9995
2 43707  54.1691 182.6169 0007885 320.2036  39.7937  1.86226854 51350
NAVSTAR 77 (USA 289)    
1 43873U 18109A   26159.23559810  .00000013  00000+0  00000+0 0  9992
2 43873  55.6763  92.5404 0038217 198.1524 302.1790  2.00561280 54896
BEIDOU-3 IGSO-1         
1 44204U 19023A   26157.95428288 -.00000215  00000+0  00000+0 0  9993
2 44204  58.6799  37.7569 0025419 225.7371  92.8010  1.00294902  7100
